LEMUR-2-AMANDA-SVANTE   
1 48269U 21034B   26068.77637527  .00030872  00000+0  11134-2 0  9996
2 48269  97.5829 144.8625 0002703 205.4721 154.6385 15.28469003265849
BANDWAGON-4 OBJECT Q    
1 66307U 25248Q   26067.98911828  .00022547  00000+0  92242-3 0  9991
2 66307  45.4076 295.4821 0011280 209.4727 150.5526 15.23978167 19300
